{"type": "FeatureCollection", "features": [ {"type": "Feature", "properties": {"norad_id": 37280, "name": "COSMOS 2251 DEB", "group": "cosmos-2251-debris", "lat": 8.58267318963666, "lon": 63.33650962416007, "alt_km": 923.8642785734919, "timestamp": "2025-12-10T14:53:37.485157+00:00", "meta": {"OBJECT_NAME": "COSMOS 2251 DEB", "OBJECT_ID": "1993-036BHU", "EPOCH": "2025-12-07T22:33:59.390208", "MEAN_MOTION": 14.19261757, "ECCENTRICITY": 0.01314572, "INCLINATION": 74.0315, "RA_OF_ASC_NODE": 65.6486, "ARG_OF_PERICENTER": 195.2525, "MEAN_ANOMALY": 164.4641, "EPHEMERIS_TYPE": 0, "CLASSIFICATION_TYPE": "U", "NORAD_CAT_ID": 37280, "ELEMENT_SET_NO": 999, "REV_AT_EPOCH": 57255, "BSTAR": 0.0024447431, "MEAN_MOTION_DOT": 5.567e-05, "MEAN_MOTION_DDOT": 0}, "tle": {"line1": "1 37280U 93036BHU 25341.94027072  .00005567  00000+0  24447-2 0  9992", "line2": "2 37280  74.0315  65.6486 0131457 195.2525 164.4641 14.19261757572550"}}, "geometry": {"type": "Point", "coordinates": [63.33650962416007, 8.58267318963666]}}, {"type": "Feature", "properties": {"norad_id": 37284, "name": "COSMOS 2251 DEB", "group": "cosmos-2251-debris", "lat": 57.12667901705541, "lon": -173.18416070274827, "alt_km": 878.9171900124329, "timestamp": "2025-12-10T14:53:37.485166+00:00", "meta": {"OBJECT_NAME": "COSMOS 2251 DEB", "OBJECT_ID": "1993-036BHY", "EPOCH": "2025-12-05T19:06:47.225088", "MEAN_MOTION": 14.12657303, "ECCENTRICITY": 0.01604408, "INCLINATION": 74.0121, "RA_OF_ASC_NODE": 169.0185, "ARG_OF_PERICENTER": 322.3384, "MEAN_ANOMALY": 52.3924, "EPHEMERIS_TYPE": 0, "CLASSIFICATION_TYPE": "U", "NORAD_CAT_ID": 37284, "ELEMENT_SET_NO": 999, "REV_AT_EPOCH": 59077, "BSTAR": 0.001984473, "MEAN_MOTION_DOT": 4.13e-05, "MEAN_MOTION_DDOT": 0}, "tle": {"line1": "1 37284U 93036BHY 25339.79637992  .00004130  00000+0  19845-2 0  9995", "line2": "2 37284  74.0121 169.0185 0160440 322.3384  52.3924 14.12657303590776"}}, "geometry": {"type": "Point", "coordinates": [-173.18416070274827, 57.12667901705541]}}, {"type": "Feature", "properties": {"norad_id": 37292, "name": "COSMOS 2251 DEB", "group": "cosmos-2251-debris", "lat": -66.23876031442899, "lon": -86.30251915805987, "alt_km": 1036.5584828715937, "timestamp": "2025-12-10T14:53:37.485175+00:00", "meta": {"OBJECT_NAME": "COSMOS 2251 DEB", "OBJECT_ID": "1993-036BJG", "EPOCH": "2025-12-02T14:04:30.366912", "MEAN_MOTION": 14.03226454, "ECCENTRICITY": 0.02102512, "INCLINATION": 74.129, "RA_OF_ASC_NODE": 67.3453, "ARG_OF_PERICENTER": 73.1105, "MEAN_ANOMALY": 289.2966, "EPHEMERIS_TYPE": 0, "CLASSIFICATION_TYPE": "U", "NORAD_CAT_ID": 37292, "ELEMENT_SET_NO": 999, "REV_AT_EPOCH": 59706, "BSTAR": 0.0022453288, "MEAN_MOTION_DOT": 4.236e-05, "MEAN_MOTION_DDOT": 0}, "tle": {"line1": "1 37292U 93036BJG 25336.58646258  .00004236  00000+0  22453-2 0  9999", "line2": "2 37292  74.1290  67.3453 0210251  73.1105 289.2966 14.03226454597064"}}, "geometry": {"type": "Point", "coordinates": [-86.30251915805987, -66.23876031442899]}}, {"type": "Feature", "properties": {"norad_id": 37295, "name": "COSMOS 2251 DEB", "group": "cosmos-2251-debris", "lat": 51.797612566106515, "lon": -52.91809307916626, "alt_km": 651.6055733931253, "timestamp": "2025-12-10T14:53:37.485184+00:00", "meta": {"OBJECT_NAME": "COSMOS 2251 DEB", "OBJECT_ID": "1993-036BJK", "EPOCH": "2025-12-10T06:27:05.450112", "MEAN_MOTION": 14.65213033, "ECCENTRICITY": 0.00437733, "INCLINATION": 74.0068, "RA_OF_ASC_NODE": 286.3868, "ARG_OF_PERICENTER": 106.4238, "MEAN_ANOMALY": 254.1748, "EPHEMERIS_TYPE": 0, "CLASSIFICATION_TYPE": "U", "NORAD_CAT_ID": 37295, "ELEMENT_SET_NO": 999, "REV_AT_EPOCH": 82268, "BSTAR": 0.00088833968, "MEAN_MOTION_DOT": 4.823e-05, "MEAN_MOTION_DDOT": 0}, "tle": {"line1": "1 37295U 93036BJK 25344.26881308  .00004823  00000+0  88834-3 0  9991", "line2": "2 37295  74.0068 286.3868 0043773 106.4238 254.1748 14.65213033822687"}}, "geometry": {"type": "Point", "coordinates": [-52.91809307916626, 51.797612566106515]}}, {"type": "Feature", "properties": {"norad_id": 37305, "name": "COSMOS 2251 DEB", "group": "cosmos-2251-debris", "lat": 55.42100487194331, "lon": -40.72929020418296, "alt_km": 800.2518934774498, "timestamp": "2025-12-10T14:53:37.485193+00:00", "meta": {"OBJECT_NAME": "COSMOS 2251 DEB", "OBJECT_ID": "1993-036BJV", "EPOCH": "2025-12-09T03:30:34.596000", "MEAN_MOTION": 14.36113297, "ECCENTRICITY": 0.00503049, "INCLINATION": 73.8703, "RA_OF_ASC_NODE": 297.1813, "ARG_OF_PERICENTER": 258.1201, "MEAN_ANOMALY": 101.4307, "EPHEMERIS_TYPE": 0, "CLASSIFICATION_TYPE": "U", "NORAD_CAT_ID": 37305, "ELEMENT_SET_NO": 999, "REV_AT_EPOCH": 66815, "BSTAR": 0.00098361717, "MEAN_MOTION_DOT": 2.879e-05, "MEAN_MOTION_DDOT": 0}, "tle": {"line1": "1 37305U 93036BJV 25343.14623375  .00002879  00000+0  98362-3 0  9993", "line2": "2 37305  73.8703 297.1813 0050304 258.1201 101.4307 14.36113297668159"}}, "geometry": {"type": "Point", "coordinates": [-40.72929020418296, 55.42100487194331]}}, {"type": "Feature", "properties": {"norad_id": 37312, "name": "COSMOS 2251 DEB", "group": "cosmos-2251-debris", "lat": 24.368817473469647, "lon": -144.4104395227426, "alt_km": 733.8103430202664, "timestamp": "2025-12-10T14:53:37.485202+00:00", "meta": {"OBJECT_NAME": "COSMOS 2251 DEB", "OBJECT_ID": "1993-036BKC", "EPOCH": "2025-12-09T00:35:23.995392", "MEAN_MOTION": 14.46107555, "ECCENTRICITY": 0.00182852, "INCLINATION": 74.0311, "RA_OF_ASC_NODE": 211.115, "ARG_OF_PERICENTER": 314.7028, "MEAN_ANOMALY": 45.264, "EPHEMERIS_TYPE": 0, "CLASSIFICATION_TYPE": "U", "NORAD_CAT_ID": 37312, "ELEMENT_SET_NO": 999, "REV_AT_EPOCH": 86110, "BSTAR": 0.00057614872, "MEAN_MOTION_DOT": 2.035e-05, "MEAN_MOTION_DDOT": 0}, "tle": {"line1": "1 37312U 93036BKC 25343.02458328  .00002035  00000+0  57615-3 0  9992", "line2": "2 37312  74.0311 211.1150 0018285 314.7028  45.2640 14.46107555861109"}}, "geometry": {"type": "Point", "coordinates": [-144.4104395227426, 24.368817473469647]}}, {"type": "Feature", "properties": {"norad_id": 37316, "name": "COSMOS 2251 DEB", "group": "cosmos-2251-debris", "lat": -34.44306082239702, "lon": -143.3211169378495, "alt_km": 600.9405224105576, "timestamp": "2025-12-10T14:53:37.485211+00:00", "meta": {"OBJECT_NAME": "COSMOS 2251 DEB", "OBJECT_ID": "1993-036BKG", "EPOCH": "2025-12-10T02:41:09.662496", "MEAN_MOTION": 14.9431335, "ECCENTRICITY": 0.00294662, "INCLINATION": 74.0196, "RA_OF_ASC_NODE": 26.3697, "ARG_OF_PERICENTER": 95.7328, "MEAN_ANOMALY": 264.7217, "EPHEMERIS_TYPE": 0, "CLASSIFICATION_TYPE": "U", "NORAD_CAT_ID": 37316, "ELEMENT_SET_NO": 999, "REV_AT_EPOCH": 86104, "BSTAR": 0.0028761908, "MEAN_MOTION_DOT": 0.0003128, "MEAN_MOTION_DDOT": 0}, "tle": {"line1": "1 37316U 93036BKG 25344.11191739  .00031280  00000+0  28762-2 0  9991", "line2": "2 37316  74.0196  26.3697 0029466  95.7328 264.7217 14.94313350861044"}}, "geometry": {"type": "Point", "coordinates": [-143.3211169378495, -34.44306082239702]}}, {"type": "Feature", "properties": {"norad_id": 37320, "name": "COSMOS 2251 DEB", "group": "cosmos-2251-debris", "lat": 64.62639458611561, "lon": 5.231290967568013, "alt_km": 657.6028749174093, "timestamp": "2025-12-10T14:53:37.485220+00:00", "meta": {"OBJECT_NAME": "COSMOS 2251 DEB", "OBJECT_ID": "1993-036BKL", "EPOCH": "2025-12-07T10:04:58.850112", "MEAN_MOTION": 14.78679149, "ECCENTRICITY": 0.00469494, "INCLINATION": 74.0461, "RA_OF_ASC_NODE": 228.6135, "ARG_OF_PERICENTER": 316.7124, "MEAN_ANOMALY": 43.0365, "EPHEMERIS_TYPE": 0, "CLASSIFICATION_TYPE": "U", "NORAD_CAT_ID": 37320, "ELEMENT_SET_NO": 999, "REV_AT_EPOCH": 66068, "BSTAR": 0.0013976753, "MEAN_MOTION_DOT": 0.00010421, "MEAN_MOTION_DDOT": 0}, "tle": {"line1": "1 37320U 93036BKL 25341.42012558  .00010421  00000+0  13977-2 0  9994", "line2": "2 37320  74.0461 228.6135 0046949 316.7124  43.0365 14.78679149660685"}}, "geometry": {"type": "Point", "coordinates": [5.231290967568013, 64.62639458611561]}}, {"type": "Feature", "properties": {"norad_id": 37326, "name": "COSMOS 2251 DEB", "group": "cosmos-2251-debris", "lat": 73.67772982465992, "lon": 56.75430561336853, "alt_km": 644.7524209639378, "timestamp": "2025-12-10T14:53:37.485230+00:00", "meta": {"OBJECT_NAME": "COSMOS 2251 DEB", "OBJECT_ID": "1993-036BKS", "EPOCH": "2025-12-09T17:08:40.531200", "MEAN_MOTION": 14.61553594, "ECCENTRICITY": 0.00547968, "INCLINATION": 74.0258, "RA_OF_ASC_NODE": 340.484, "ARG_OF_PERICENTER": 110.429, "MEAN_ANOMALY": 250.2773, "EPHEMERIS_TYPE": 0, "CLASSIFICATION_TYPE": "U", "NORAD_CAT_ID": 37326, "ELEMENT_SET_NO": 999, "REV_AT_EPOCH": 85439, "BSTAR": 0.00082515886, "MEAN_MOTION_DOT": 4.157e-05, "MEAN_MOTION_DDOT": 0}, "tle": {"line1": "1 37326U 93036BKS 25343.71435800  .00004157  00000+0  82516-3 0  9998", "line2": "2 37326  74.0258 340.4840 0054796 110.4290 250.2773 14.61553594854398"}}, "geometry": {"type": "Point", "coordinates": [56.75430561336853, 73.67772982465992]}}, {"type": "Feature", "properties": {"norad_id": 37330, "name": "COSMOS 2251 DEB", "group": "cosmos-2251-debris", "lat": 71.91869376803827, "lon": 57.758872732448296, "alt_km": 661.1598267046693, "timestamp": "2025-12-10T14:53:37.485239+00:00", "meta": {"OBJECT_NAME": "COSMOS 2251 DEB", "OBJECT_ID": "1993-036BKW", "EPOCH": "2025-12-08T14:44:12.757056", "MEAN_MOTION": 14.59521863, "ECCENTRICITY": 0.0057164, "INCLINATION": 74.0185, "RA_OF_ASC_NODE": 302.963, "ARG_OF_PERICENTER": 152.6468, "MEAN_ANOMALY": 207.7728, "EPHEMERIS_TYPE": 0, "CLASSIFICATION_TYPE": "U", "NORAD_CAT_ID": 37330, "ELEMENT_SET_NO": 999, "REV_AT_EPOCH": 86308, "BSTAR": 0.00058808, "MEAN_MOTION_DOT": 2.827e-05, "MEAN_MOTION_DDOT": 0}, "tle": {"line1": "1 37330U 93036BKW 25342.61403654  .00002827  00000+0  58808-3 0  9992", "line2": "2 37330  74.0185 302.9630 0057164 152.6468 207.7728 14.59521863863083"}}, "geometry": {"type": "Point", "coordinates": [57.758872732448296, 71.91869376803827]}}]}